INTELSAT 22 (IS-22)     
1 38098U 12011A   24103.91993687 -.00000068  00000+0  00000+0 0  9998
2 38098   0.0149 145.4206 0001821 245.9307 213.5241  1.00270185 43838
APSTAR-7                
1 38107U 12013A   24103.87361150 -.00000111  00000+0  00000+0 0  9999
2 38107   0.0333 107.0318 0002247 273.1579 212.3537  1.00271471 43833
YAHSAT 1B               
1 38245U 12016A   24103.67344816  .00000117  00000+0  00000+0 0  9998
2 38245   0.0229 120.8306 0003287 268.1981 102.3601  1.00272422 37623
AEHF-2 (USA 235)        
1 38254U 12019A   24103.93153641 -.00000168  00000+0  00000+0 0  9991
2 38254   4.8131  61.8175 0002741 282.6614  98.2535  1.00273762 43706
JCSAT-13                
1 38331U 12023A   24103.90342811 -.00000365  00000+0  00000+0 0  9997
2 38331   0.0209 125.2506 0002255 278.1446 247.4260  1.00271573 43567
VINASAT-2               
1 38332U 12023B   24104.19121181 -.00000338  00000+0  00000+0 0  9995
2 38332   0.0348  50.9252 0002399 342.9482   8.6646  1.00272592 43649
NIMIQ 6                 
1 38342U 12026A   24103.57424240 -.00000182  00000+0  00000+0 0  9999
2 38342   0.0082 211.4033 0002855 162.2921 303.1796  1.00273065 42446
CHINASAT 2A (ZX 2A)     
1 38352U 12028A   24103.89820675 -.00000302  00000+0  00000+0 0  9993
2 38352   0.0523  49.5031 0002081 332.2651 241.3999  1.00273349 43405
INTELSAT 19 (IS-19)     
1 38356U 12030A   24104.12646700 -.00000066  00000+0  00000+0 0  9999
2 38356   0.0120 187.1398 0002949 198.4307  27.7420  1.00270539 43548
ECHOSTAR 17             
1 38551U 12035A   24103.85949701 -.00000084  00000+0  00000+0 0  9997
2 38551   0.0147 188.4176 0002124 188.6120  26.8142  1.00271398 43085
METEOSAT-10 (MSG-3)     
1 38552U 12035B   24103.87880071 -.00000014  00000+0  00000+0 0  9997
2 38552   2.8202  60.4155 0002353 283.4506 174.3298  1.00266401 42887
SES-5                   
1 38652U 12036A   24103.66491997  .00000025  00000+0  00000+0 0  9992
2 38652   0.0372 344.7374 0001797  26.4499  74.4890  1.00272176 36511
INTELSAT 20 (IS-20)     
1 38740U 12043A   24103.96390881 -.00000032  00000+0  00000+0 0  9990
2 38740   0.0188 144.4306 0001822  51.8524  60.8506  1.00267401 42856
HYLAS 2                 
1 38741U 12043B   24104.17128365  .00000145  00000+0  00000+0 0  9995
2 38741   0.3709  90.4843 0001374 310.1518 253.8962  1.00271256 42876
INTELSAT 21 (IS-21)     
1 38749U 12045A   24104.18726833 -.00000294  00000+0  00000+0 0  9996
2 38749   0.0233 115.4440 0001736 263.8709 191.9627  1.00272042 42663
ASTRA 2F                
1 38778U 12051A   24103.94276873  .00000141  00000+0  00000+0 0  9992
2 38778   0.0476 243.6814 0001473  35.6400 289.8728  1.00271458 33157
GSAT-10                 
1 38779U 12051B   24103.10774934 -.00000173  00000+0  00000+0 0  9998
2 38779   0.0442  88.6674 0002018 207.2261  26.6763  1.00271622 42126
INTELSAT 23 (IS-23)     
1 38867U 12057A   24103.88660326 -.00000293  00000+0  00000+0 0  9999
2 38867   0.0167 231.6885 0001419 183.4832  52.5674  1.00269544 41976
BEIDOU-2 G6             
1 38953U 12059A   24103.87647118 -.00000184  00000+0  00000+0 0  9999
2 38953   2.3942  80.9007 0010718 303.5943 216.5482  1.00275133 41935
LUCH-5B                 
1 38977U 12061A   24104.16179816 -.00000144  00000+0  00000+0 0  9992
2 38977   8.7484  57.2599 0000929  72.7906 113.6808  1.00271679 42203
YAMAL 300K              
1 38978U 12061B   24103.70033579  .00000062  00000+0  00000+0 0  9995
2 38978   0.0161 263.3386 0000836 357.0183  16.0819  1.00271588 41653
STAR ONE C3             
1 38991U 12062A   24104.25079118 -.00000259  00000+0  00000+0 0  9990
2 38991   0.0497  75.6131 0001391 307.0575 194.5392  1.00272756 41880
EUTELSAT 21B            
1 38992U 12062B   24103.93727622  .00000121  00000+0  00000+0 0  9992
2 38992   0.0715  15.3618 0002725   8.9921 176.2613  1.00272839 41851
ECHOSTAR 16             
1 39008U 12065A   24103.86653053 -.00000291  00000+0  00000+0 0  9991
2 39008   0.0179 193.9787 0001829 188.3096  69.6945  1.00272115 41641
CHINASAT 12 (ZX 12)     
1 39017U 12067A   24103.89611821 -.00000216  00000+0  00000+0 0  9990
2 39017   0.0360 101.9243 0003210 279.5941 230.1402  1.00271765 41538
EUTELSAT 70B            
1 39020U 12069A   24103.91993687 -.00000053  00000+0  00000+0 0  9991
2 39020   0.0663  16.6680 0000998 351.4048 235.2486  1.00271973 41532
YAMAL 402               
1 39022U 12070A   24104.17598286  .00000077  00000+0  00000+0 0  9995
2 39022   0.0178 213.4413 0003926 160.2550 306.3931  1.00270957 41620
SKYNET 5D               
1 39034U 12075A   24103.88924344  .00000090  00000+0  00000+0 0  9993
2 39034   0.0699  12.1338 0003604   7.1097 195.1771  1.00272766 41186
MEXSAT 3                
1 39035U 12075B   24103.64116278 -.00000034  00000+0  00000+0 0  9996
2 39035   0.0118 216.5805 0002210 144.9645 315.7823  1.00270864 41201
TDRS 11                 
1 39070U 13004A   24103.84407872  .00000071  00000+0  00000+0 0  9993
2 39070   2.7217   9.3069 0005484  39.3518 282.4335  1.00277362 38711
AMAZONAS 3              
1 39078U 13006A   24104.18576758 -.00000292  00000+0  00000+0 0  9997
2 39078   0.0189 190.0218 0001484 198.5412 179.1817  1.00271914 40996
AZERSPACE 1             
1 39079U 13006B   24104.11160370  .00000124  00000+0  00000+0 0  9993
2 39079   0.0389  79.8924 0001477 320.0922 247.9389  1.00272060 40954
SBIRS GEO-2 (USA 241)   
1 39120U 13011A   24104.15753405 -.00000266  00000+0  00000+0 0  9995
2 39120   2.8630  45.9743 0002213 332.5336 202.0329  1.00271572 40615
EUTELSAT 117 WEST A     
1 39122U 13012A   24103.94493942 -.00000022  00000+0  00000+0 0  9991
2 39122   0.0711  76.8065 0002779 304.6975  43.4967  1.00273133 40499
ANIK G1                 
1 39127U 13014A   24103.93375205 -.00000083  00000+0  00000+0 0  9995
2 39127   0.0155 180.3627 0002066 166.5386  83.5417  1.00272686 40274
CHINASAT 11 (ZX 11)     
1 39157U 13020A   24104.07827130 -.00000300  00000+0  00000+0 0  9992
2 39157   0.0131 195.3067 0003509 132.2610   0.2256  1.00275027 40176
EUTELSAT 7B             
1 39163U 13022A   24103.81368918  .00000039  00000+0  00000+0 0  9994
2 39163   0.0706  15.2014 0005824 351.0694 135.1324  1.00271028 39997
WGS F5 (USA 243)        
1 39168U 13024A   24103.79630330 -.00000293  00000+0  00000+0 0  9991
2 39168   0.0134 213.7474 0000761 138.7951  83.0629  1.00269557 39187
SES-6                   
1 39172U 13026A   24104.15743878 -.00000271  00000+0  00000+0 0  9997
2 39172   0.0289 318.5719 0002646  46.0683 213.3528  1.00271367 39746
IRNSS-1A                
1 39199U 13034A   24103.01368883  .00000078  00000+0  00000+0 0  9992
2 39199  33.9306  75.4188 0018290 188.3362 356.8839  1.00276202 39386
MUOS-2                  
1 39206U 13036A   24104.12977385  .00000058  00000+0  00000+0 0  9997
2 39206   3.5210  39.5913 0048452 182.2046 209.6943  1.00277704 39338
ALPHASAT                
1 39215U 13038A   24104.17006531  .00000125  00000+0  00000+0 0  9995
2 39215   2.8836   8.1276 0001679  38.6539 241.1535  1.00270856 39293
INSAT-3D                
1 39216U 13038B   24103.87636395 -.00000165  00000+0  00000+0 0  9994
2 39216   0.0878  85.8295 0001908 222.6540 290.6381  1.00270766 39103
WGS F6 (USA 244)        
1 39222U 13041A   24103.63707271  .00000080  00000+0  00000+0 0  9996
2 39222   0.0031 205.8516 0000352  68.2835  21.3088  1.00271852 38079
ES'HAIL 1               
1 39233U 13044A   24103.88376100  .00000134  00000+0  00000+0 0  9991
2 39233   0.0566  16.6091 0002220   9.4217 159.1643  1.00269862 38656
GSAT-7                  
1 39234U 13044B   24103.60713694 -.00000086  00000+0  00000+0 0  9992
2 39234   0.0985  87.4050 0007427 200.8107 205.6346  1.00271688 37354
AMOS-4                  
1 39237U 13045A   24103.91993687 -.00000002  00000+0  00000+0 0  9990
2 39237   0.0259 130.2611 0003265 238.5894 228.9317  1.00273162 38983
AEHF-3 (USA 246)        
1 39256U 13050A   24103.77637512  .00000126  00000+0  00000+0 0  9999
2 39256   3.3160  73.1536 0047255 183.2044  69.5158  1.00273006 37698
ASTRA 2E                
1 39285U 13056A   24103.94276860  .00000141  00000+0  00000+0 0  9998
2 39285   0.0658 338.0854 0002877  43.3133 188.0870  1.00273566 38463
FM-6                    
1 39360U 13058A   24103.71234492 -.00000026  00000+0  00000+0 0  9997
2 39360   0.0194 261.0329 0000732 341.0187  99.6346  1.00272663 38089
RADUGA-1M 3             
1 39375U 13062A   24104.10044726  .00000147  00000+0  00000+0 0  9994
2 39375   3.9289  82.0699 0002523 176.8844  13.9975  1.00271090 38155
SES-8                   
1 39460U 13071A   24104.14216118 -.00000279  00000+0  00000+0 0  9996
2 39460   0.0140 235.2448 0002157 163.2937 309.4412  1.00272758 37907
INMARSAT 5-F1           
1 39476U 13073A   24103.60478733  .00000019  00000+0  00000+0 0  9999
2 39476   0.0143 192.4906 0000242  82.4804 206.6120  1.00272395 37617
TKSAT-1 (TUPAC KATARI)  
1 39481U 13075A   24104.17154962 -.00000204  00000+0  00000+0 0  9992
2 39481   0.0159  45.3899 0003016 310.6611 180.3435  1.00272575 37876
EXPRESS-AM5             
1 39487U 13077A   24103.97818052 -.00000289  00000+0  00000+0 0  9997
2 39487   0.0158 238.8766 0000448  35.1863  59.7528  1.00271690 38350
GSAT-14                 
1 39498U 14001A   24103.91993687 -.00000086  00000+0  00000+0 0  9994
2 39498   0.0499  80.5255 0003685 222.1486 304.0839  1.00271585 37410
THAICOM 6               
1 39500U 14002A   24103.87388832 -.00000130  00000+0  00000+0 0  9994
2 39500   0.0432 125.4205 0001652 311.9224 157.3022  1.00269138 37485
TDRS 12                 
1 39504U 14004A   24103.87062059 -.00000278  00000+0  00000+0 0  9993
2 39504   3.5529   1.8180 0001788 205.5334 266.7325  1.00273608 36301
ABS-2                   
1 39508U 14006A   24103.78035590 -.00000095  00000+0  00000+0 0  9996
2 39508   0.0711  82.4610 0002375 299.0651 175.7683  1.00271820 37307
